{
  "type": "FeatureCollection",
  "features": [
    {
      "type": "Feature",
      "properties": {
        "norad_id": 46805,
        "name": "COSMOS 2547 (705K)",
        "group": "glo-ops",
        "lat": 60.78624406105593,
        "lon": -39.84283675709371,
        "alt_km": 19131.855284855108,
        "timestamp": "2025-12-21T16:47:54.999400+00:00",
        "meta_object_name": "COSMOS 2547 (705K)",
        "meta_object_id": "2020-075A",
        "meta_epoch": "2025-12-21T02:15:10.361952",
        "meta_mean_motion": 2.13100243,
        "meta_eccentricity": 0.0006113,
        "meta_inclination": 64.5966,
        "meta_ra_of_asc_node": 198.4175,
        "meta_arg_of_pericenter": 227.727,
        "meta_mean_anomaly": 132.2941,
        "meta_ephemeris_type": 0,
        "meta_classification_type": "U",
        "meta_norad_cat_id": 46805,
        "meta_element_set_no": 999,
        "meta_rev_at_epoch": 4011,
        "meta_bstar": 0,
        "meta_mean_motion_dot": 9.8e-07,
        "meta_mean_motion_ddot": 0,
        "tle_line1": "1 46805U 20075A   25355.09386993  .00000098  00000+0  00000+0 0  9999",
        "tle_line2": "2 46805  64.5966 198.4175 0006113 227.7270 132.2941  2.13100243 40118"
      },
      "geometry": {
        "type": "Point",
        "coordinates": [
          -39.84283675709371,
          60.78624406105593
        ]
      }
    },
    {
      "type": "Feature",
      "properties": {
        "norad_id": 52984,
        "name": "COSMOS 2557 (706K)",
        "group": "glo-ops",
        "lat": -19.57477303252304,
        "lon": -49.08911064246126,
        "alt_km": 19115.47027973423,
        "timestamp": "2025-12-21T16:47:54.999411+00:00",
        "meta_object_name": "COSMOS 2557 (706K)",
        "meta_object_id": "2022-075A",
        "meta_epoch": "2025-12-20T07:41:36.547296",
        "meta_mean_motion": 2.13102072,
        "meta_eccentricity": 0.0013536,
        "meta_inclination": 64.4056,
        "meta_ra_of_asc_node": 320.785,
        "meta_arg_of_pericenter": 278.2438,
        "meta_mean_anomaly": 81.5952,
        "meta_ephemeris_type": 0,
        "meta_classification_type": "U",
        "meta_norad_cat_id": 52984,
        "meta_element_set_no": 999,
        "meta_rev_at_epoch": 2690,
        "meta_bstar": 0,
        "meta_mean_motion_dot": -5.4e-07,
        "meta_mean_motion_ddot": 0,
        "tle_line1": "1 52984U 22075A   25354.32056189 -.00000054  00000+0  00000+0 0  9995",
        "tle_line2": "2 52984  64.4056 320.7850 0013536 278.2438  81.5952  2.13102072 26907"
      },
      "geometry": {
        "type": "Point",
        "coordinates": [
          -49.08911064246126,
          -19.57477303252304
        ]
      }
    },
    {
      "type": "Feature",
      "properties": {
        "norad_id": 54031,
        "name": "COSMOS 2559 (707K)",
        "group": "glo-ops",
        "lat": 53.59082352497731,
        "lon": 100.23919718494429,
        "alt_km": 19116.248268702693,
        "timestamp": "2025-12-21T16:47:54.999422+00:00",
        "meta_object_name": "COSMOS 2559 (707K)",
        "meta_object_id": "2022-130A",
        "meta_epoch": "2025-12-21T01:52:43.812768",
        "meta_mean_motion": 2.13101354,
        "meta_eccentricity": 0.00115601,
        "meta_inclination": 64.3775,
        "meta_ra_of_asc_node": 320.8478,
        "meta_arg_of_pericenter": 191.8523,
        "meta_mean_anomaly": 168.1144,
        "meta_ephemeris_type": 0,
        "meta_classification_type": "U",
        "meta_norad_cat_id": 54031,
        "meta_element_set_no": 999,
        "meta_rev_at_epoch": 2489,
        "meta_bstar": 0,
        "meta_mean_motion_dot": -5e-07,
        "meta_mean_motion_ddot": 0,
        "tle_line1": "1 54031U 22130A   25355.07828487 -.00000050  00000+0  00000+0 0  9999",
        "tle_line2": "2 54031  64.3775 320.8478 0011560 191.8523 168.1144  2.13101354 24899"
      },
      "geometry": {
        "type": "Point",
        "coordinates": [
          100.23919718494429,
          53.59082352497731
        ]
      }
    },
    {
      "type": "Feature",
      "properties": {
        "norad_id": 54377,
        "name": "COSMOS 2564 (761)",
        "group": "glo-ops",
        "lat": -48.95497973734562,
        "lon": 51.468713614053904,
        "alt_km": 19117.218246087978,
        "timestamp": "2025-12-21T16:47:54.999433+00:00",
        "meta_object_name": "COSMOS 2564 (761)",
        "meta_object_id": "2022-161A",
        "meta_epoch": "2025-12-20T22:08:20.201856",
        "meta_mean_motion": 2.13102061,
        "meta_eccentricity": 0.00085464,
        "meta_inclination": 64.7387,
        "meta_ra_of_asc_node": 198.627,
        "meta_arg_of_pericenter": 203.7858,
        "meta_mean_anomaly": 156.2488,
        "meta_ephemeris_type": 0,
        "meta_classification_type": "U",
        "meta_norad_cat_id": 54377,
        "meta_element_set_no": 999,
        "meta_rev_at_epoch": 2383,
        "meta_bstar": 0,
        "meta_mean_motion_dot": 9.9e-07,
        "meta_mean_motion_ddot": 0,
        "tle_line1": "1 54377U 22161A   25354.92245604  .00000099  00000+0  00000+0 0  9995",
        "tle_line2": "2 54377  64.7387 198.6270 0008546 203.7858 156.2488  2.13102061 23838"
      },
      "geometry": {
        "type": "Point",
        "coordinates": [
          51.468713614053904,
          -48.95497973734562
        ]
      }
    },
    {
      "type": "Feature",
      "properties": {
        "norad_id": 57517,
        "name": "COSMOS 2569 (703K)",
        "group": "glo-ops",
        "lat": -40.822020175681125,
        "lon": -77.87614582216708,
        "alt_km": 19121.44291233424,
        "timestamp": "2025-12-21T16:47:54.999444+00:00",
        "meta_object_name": "COSMOS 2569 (703K)",
        "meta_object_id": "2023-114A",
        "meta_epoch": "2025-12-20T11:11:48.591168",
        "meta_mean_motion": 2.13103983,
        "meta_eccentricity": 0.00107986,
        "meta_inclination": 65.1981,
        "meta_ra_of_asc_node": 78.6524,
        "meta_arg_of_pericenter": 287.0398,
        "meta_mean_anomaly": 72.8764,
        "meta_ephemeris_type": 0,
        "meta_classification_type": "U",
        "meta_norad_cat_id": 57517,
        "meta_element_set_no": 999,
        "meta_rev_at_epoch": 1845,
        "meta_bstar": 0,
        "meta_mean_motion_dot": -1.8e-07,
        "meta_mean_motion_ddot": 0,
        "tle_line1": "1 57517U 23114A   25354.46653462 -.00000018  00000+0  00000+0 0  9999",
        "tle_line2": "2 57517  65.1981  78.6524 0010798 287.0398  72.8764  2.13103983 18453"
      },
      "geometry": {
        "type": "Point",
        "coordinates": [
          -77.87614582216708,
          -40.822020175681125
        ]
      }
    },
    {
      "type": "Feature",
      "properties": {
        "norad_id": 63130,
        "name": "COSMOS 2584 (704K)",
        "group": "glo-ops",
        "lat": -41.31388767730632,
        "lon": 54.66356649182645,
        "alt_km": 19136.33646767589,
        "timestamp": "2025-12-21T16:47:54.999455+00:00",
        "meta_object_name": "COSMOS 2584 (704K)",
        "meta_object_id": "2025-042A",
        "meta_epoch": "2025-12-21T07:00:00.962784",
        "meta_mean_motion": 2.1310308,
        "meta_eccentricity": 0.000773,
        "meta_inclination": 64.9804,
        "meta_ra_of_asc_node": 78.8547,
        "meta_arg_of_pericenter": 219.1567,
        "meta_mean_anomaly": 140.8257,
        "meta_ephemeris_type": 0,
        "meta_classification_type": "U",
        "meta_norad_cat_id": 63130,
        "meta_element_set_no": 999,
        "meta_rev_at_epoch": 625,
        "meta_bstar": 0,
        "meta_mean_motion_dot": -1.1e-07,
        "meta_mean_motion_ddot": 0,
        "tle_line1": "1 63130U 25042A   25355.29167781 -.00000011  00000+0  00000+0 0  9998",
        "tle_line2": "2 63130  64.9804  78.8547 0007730 219.1567 140.8257  2.13103080  6251"
      },
      "geometry": {
        "type": "Point",
        "coordinates": [
          54.66356649182645,
          -41.31388767730632
        ]
      }
    },
    {
      "type": "Feature",
      "properties": {
        "norad_id": 65590,
        "name": "COSMOS 2596 (708K)",
        "group": "glo-ops",
        "lat": 59.18605107469201,
        "lon": 13.44255738281523,
        "alt_km": 19143.924289956485,
        "timestamp": "2025-12-21T16:47:54.999466+00:00",
        "meta_object_name": "COSMOS 2596 (708K)",
        "meta_object_id": "2025-206B",
        "meta_epoch": "2025-12-21T04:46:20.434368",
        "meta_mean_motion": 2.13100447,
        "meta_eccentricity": 0.00140799,
        "meta_inclination": 64.7398,
        "meta_ra_of_asc_node": 321.1811,
        "meta_arg_of_pericenter": 307.1561,
        "meta_mean_anomaly": 100.0087,
        "meta_ephemeris_type": 0,
        "meta_classification_type": "U",
        "meta_norad_cat_id": 65590,
        "meta_element_set_no": 999,
        "meta_rev_at_epoch": 212,
        "meta_bstar": 0,
        "meta_mean_motion_dot": -4.9e-07,
        "meta_mean_motion_ddot": 0,
        "tle_line1": "1 65590U 25206B   25355.19884762 -.00000049  00000+0  00000+0 0  9997",
        "tle_line2": "2 65590  64.7398 321.1811 0014079 307.1561 100.0087  2.13100447  2128"
      },
      "geometry": {
        "type": "Point",
        "coordinates": [
          13.44255738281523,
          59.18605107469201
        ]
      }
    }
  ]
}